{
  "type": "FeatureCollection",
  "features": [
    {
      "type": "Feature",
      "properties": {
        "norad_id": 40894,
        "name": "GAOFEN-9 01",
        "group": "resource",
        "lat": 14.982822225092947,
        "lon": -155.8374890960608,
        "alt_km": 632.196039434848,
        "timestamp": "2025-12-08T23:34:03.626819+00:00",
        "meta_object_name": "GAOFEN-9 01",
        "meta_object_id": "2015-047A",
        "meta_epoch": "2025-12-08T14:43:45.340608",
        "meta_mean_motion": 14.82407748,
        "meta_eccentricity": 0.00286873,
        "meta_inclination": 97.6547,
        "meta_ra_of_asc_node": 21.7474,
        "meta_arg_of_pericenter": 47.3422,
        "meta_mean_anomaly": 313.0203,
        "meta_ephemeris_type": 0,
        "meta_classification_type": "U",
        "meta_norad_cat_id": 40894,
        "meta_element_set_no": 999,
        "meta_rev_at_epoch": 55195,
        "meta_bstar": 0.00028620692,
        "meta_mean_motion_dot": 2.258e-05,
        "meta_mean_motion_ddot": 0,
        "tle_line1": "1 40894U 15047A   25342.61371922  .00002258  00000+0  28621-3 0  9997",
        "tle_line2": "2 40894  97.6547  21.7474 0028687  47.3422 313.0203 14.82407748551955"
      },
      "geometry": {
        "type": "Point",
        "coordinates": [
          -155.8374890960608,
          14.982822225092947
        ]
      }
    },
    {
      "type": "Feature",
      "properties": {
        "norad_id": 41026,
        "name": "YAOGAN-28",
        "group": "resource",
        "lat": 68.65477480738454,
        "lon": -40.02251788735329,
        "alt_km": 478.96729764893644,
        "timestamp": "2025-12-08T23:34:03.626830+00:00",
        "meta_object_name": "YAOGAN-28",
        "meta_object_id": "2015-064A",
        "meta_epoch": "2025-12-08T15:12:31.550400",
        "meta_mean_motion": 15.24245641,
        "meta_eccentricity": 0.00122282,
        "meta_inclination": 97.2809,
        "meta_ra_of_asc_node": 120.5424,
        "meta_arg_of_pericenter": 139.388,
        "meta_mean_anomaly": 220.8272,
        "meta_ephemeris_type": 0,
        "meta_classification_type": "U",
        "meta_norad_cat_id": 41026,
        "meta_element_set_no": 999,
        "meta_rev_at_epoch": 56162,
        "meta_bstar": 0.0004579397,
        "meta_mean_motion_dot": 0.00011133,
        "meta_mean_motion_ddot": 0,
        "tle_line1": "1 41026U 15064A   25342.63369850  .00011133  00000+0  45794-3 0  9995",
        "tle_line2": "2 41026  97.2809 120.5424 0012228 139.3880 220.8272 15.24245641561622"
      },
      "geometry": {
        "type": "Point",
        "coordinates": [
          -40.02251788735329,
          68.65477480738454
        ]
      }
    },
    {
      "type": "Feature",
      "properties": {
        "norad_id": 41038,
        "name": "YAOGAN-29",
        "group": "resource",
        "lat": 45.26731634238922,
        "lon": -2.0425419173788324,
        "alt_km": 616.2493162457185,
        "timestamp": "2025-12-08T23:34:03.626840+00:00",
        "meta_object_name": "YAOGAN-29",
        "meta_object_id": "2015-069A",
        "meta_epoch": "2025-12-08T15:15:51.660576",
        "meta_mean_motion": 14.82876275,
        "meta_eccentricity": 3.613e-05,
        "meta_inclination": 98.0222,
        "meta_ra_of_asc_node": 5.7944,
        "meta_arg_of_pericenter": 348.0206,
        "meta_mean_anomaly": 12.0998,
        "meta_ephemeris_type": 0,
        "meta_classification_type": "U",
        "meta_norad_cat_id": 41038,
        "meta_element_set_no": 999,
        "meta_rev_at_epoch": 54238,
        "meta_bstar": 0.00012427207,
        "meta_mean_motion_dot": 9.53e-06,
        "meta_mean_motion_ddot": 0,
        "tle_line1": "1 41038U 15069A   25342.63601459  .00000953  00000+0  12427-3 0  9992",
        "tle_line2": "2 41038  98.0222   5.7944 0000361 348.0206  12.0998 14.82876275542384"
      },
      "geometry": {
        "type": "Point",
        "coordinates": [
          -2.0425419173788324,
          45.26731634238922
        ]
      }
    },
    {
      "type": "Feature",
      "properties": {
        "norad_id": 41167,
        "name": "KENT RIDGE 1",
        "group": "resource",
        "lat": 12.849363907127119,
        "lon": -62.41460159081304,
        "alt_km": 490.86936616396815,
        "timestamp": "2025-12-08T23:34:03.626851+00:00",
        "meta_object_name": "KENT RIDGE 1",
        "meta_object_id": "2015-077B",
        "meta_epoch": "2025-12-08T09:08:56.258880",
        "meta_mean_motion": 15.21584138,
        "meta_eccentricity": 0.00085513,
        "meta_inclination": 14.979,
        "meta_ra_of_asc_node": 243.4838,
        "meta_arg_of_pericenter": 69.0212,
        "meta_mean_anomaly": 291.1024,
        "meta_ephemeris_type": 0,
        "meta_classification_type": "U",
        "meta_norad_cat_id": 41167,
        "meta_element_set_no": 999,
        "meta_rev_at_epoch": 55197,
        "meta_bstar": 0.00025732227,
        "meta_mean_motion_dot": 6.745e-05,
        "meta_mean_motion_ddot": 0,
        "tle_line1": "1 41167U 15077B   25342.38120670  .00006745  00000+0  25732-3 0  9995",
        "tle_line2": "2 41167  14.9790 243.4838 0008551  69.0212 291.1024 15.21584138551976"
      },
      "geometry": {
        "type": "Point",
        "coordinates": [
          -62.41460159081304,
          12.849363907127119
        ]
      }
    },
    {
      "type": "Feature",
      "properties": {
        "norad_id": 41194,
        "name": "GAOFEN-4",
        "group": "resource",
        "lat": 0.15259925117822187,
        "lon": 177.1930088127082,
        "alt_km": 35771.61391288782,
        "timestamp": "2025-12-08T23:34:03.626865+00:00",
        "meta_object_name": "GAOFEN-4",
        "meta_object_id": "2015-083A",
        "meta_epoch": "2025-12-08T14:06:26.851392",
        "meta_mean_motion": 1.00271346,
        "meta_eccentricity": 0.00035306,
        "meta_inclination": 0.1597,
        "meta_ra_of_asc_node": 81.0353,
        "meta_arg_of_pericenter": 105.4236,
        "meta_mean_anomaly": 208.4534,
        "meta_ephemeris_type": 0,
        "meta_classification_type": "U",
        "meta_norad_cat_id": 41194,
        "meta_element_set_no": 999,
        "meta_rev_at_epoch": 3661,
        "meta_bstar": 0,
        "meta_mean_motion_dot": -3.32e-06,
        "meta_mean_motion_ddot": 0,
        "tle_line1": "1 41194U 15083A   25342.58781078 -.00000332  00000+0  00000+0 0  9993",
        "tle_line2": "2 41194   0.1597  81.0353 0003530 105.4236 208.4534  1.00271346 36611"
      },
      "geometry": {
        "type": "Point",
        "coordinates": [
          177.1930088127082,
          0.15259925117822187
        ]
      }
    },
    {
      "type": "Feature",
      "properties": {
        "norad_id": 41240,
        "name": "JASON-3",
        "group": "resource",
        "lat": 5.192534222841443,
        "lon": -16.59107668845282,
        "alt_km": 1312.7562275177715,
        "timestamp": "2025-12-08T23:34:03.626877+00:00",
        "meta_object_name": "JASON-3",
        "meta_object_id": "2016-002A",
        "meta_epoch": "2025-12-08T15:12:32.245056",
        "meta_mean_motion": 12.87626339,
        "meta_eccentricity": 0.00071324,
        "meta_inclination": 66.039,
        "meta_ra_of_asc_node": 166.4569,
        "meta_arg_of_pericenter": 270.5019,
        "meta_mean_anomaly": 89.5183,
        "meta_ephemeris_type": 0,
        "meta_classification_type": "U",
        "meta_norad_cat_id": 41240,
        "meta_element_set_no": 999,
        "meta_rev_at_epoch": 46271,
        "meta_bstar": 3.8557079e-05,
        "meta_mean_motion_dot": -5.2e-07,
        "meta_mean_motion_ddot": 0,
        "tle_line1": "1 41240U 16002A   25342.63370654 -.00000052  00000+0  38557-4 0  9999",
        "tle_line2": "2 41240  66.0390 166.4569 0007132 270.5019  89.5183 12.87626339462712"
      },
      "geometry": {
        "type": "Point",
        "coordinates": [
          -16.59107668845282,
          5.192534222841443
        ]
      }
    },
    {
      "type": "Feature",
      "properties": {
        "norad_id": 41335,
        "name": "SENTINEL-3A",
        "group": "resource",
        "lat": 36.07829784232064,
        "lon": -125.60780436871927,
        "alt_km": 799.662412291179,
        "timestamp": "2025-12-08T23:34:03.626887+00:00",
        "meta_object_name": "SENTINEL-3A",
        "meta_object_id": "2016-011A",
        "meta_epoch": "2025-12-08T14:28:57.208224",
        "meta_mean_motion": 14.26744468,
        "meta_eccentricity": 9.628e-05,
        "meta_inclination": 98.6212,
        "meta_ra_of_asc_node": 47.6728,
        "meta_arg_of_pericenter": 92.8922,
        "meta_mean_anomaly": 267.2369,
        "meta_ephemeris_type": 0,
        "meta_classification_type": "U",
        "meta_norad_cat_id": 41335,
        "meta_element_set_no": 999,
        "meta_rev_at_epoch": 51088,
        "meta_bstar": 0.00014817186,
        "meta_mean_motion_dot": 3.15e-06,
        "meta_mean_motion_ddot": 0,
        "tle_line1": "1 41335U 16011A   25342.60343991  .00000315  00000+0  14817-3 0  9998",
        "tle_line2": "2 41335  98.6212  47.6728 0000962  92.8922 267.2369 14.26744468510882"
      },
      "geometry": {
        "type": "Point",
        "coordinates": [
          -125.60780436871927,
          36.07829784232064
        ]
      }
    }
  ]
}